{
  "type": "FeatureCollection",
  "features": [
    {
      "type": "Feature",
      "properties": {
        "norad_id": 37533,
        "name": "COSMOS 2251 DEB",
        "group": "cosmos-2251-debris",
        "lat": 67.24423205847312,
        "lon": -138.92027862669028,
        "alt_km": 951.5621323433952,
        "timestamp": "2025-12-20T11:30:28.773803+00:00",
        "meta_object_name": "COSMOS 2251 DEB",
        "meta_object_id": "1993-036BNN",
        "meta_epoch": "2025-12-17T06:38:38.162976",
        "meta_mean_motion": 14.12190824,
        "meta_eccentricity": 0.0157786,
        "meta_inclination": 74.0692,
        "meta_ra_of_asc_node": 183.8069,
        "meta_arg_of_pericenter": 239.4795,
        "meta_mean_anomaly": 119.0691,
        "meta_ephemeris_type": 0,
        "meta_classification_type": "U",
        "meta_norad_cat_id": 37533,
        "meta_element_set_no": 999,
        "meta_rev_at_epoch": 62985,
        "meta_bstar": 0.0010470743,
        "meta_mean_motion_dot": 2.138e-05,
        "meta_mean_motion_ddot": 0,
        "tle_line1": "1 37533U 93036BNN 25351.27683059  .00002138  00000+0  10471-2 0  9996",
        "tle_line2": "2 37533  74.0692 183.8069 0157786 239.4795 119.0691 14.12190824629858"
      },
      "geometry": {
        "type": "Point",
        "coordinates": [
          -138.92027862669028,
          67.24423205847312
        ]
      }
    },
    {
      "type": "Feature",
      "properties": {
        "norad_id": 37535,
        "name": "COSMOS 2251 DEB",
        "group": "cosmos-2251-debris",
        "lat": -24.03558868254643,
        "lon": -113.902884101076,
        "alt_km": 683.9806810197215,
        "timestamp": "2025-12-20T11:30:28.773813+00:00",
        "meta_object_name": "COSMOS 2251 DEB",
        "meta_object_id": "1993-036BNQ",
        "meta_epoch": "2025-12-19T15:30:43.235136",
        "meta_mean_motion": 14.58499467,
        "meta_eccentricity": 0.0027409,
        "meta_inclination": 74.024,
        "meta_ra_of_asc_node": 60.3433,
        "meta_arg_of_pericenter": 198.557,
        "meta_mean_anomaly": 313.5255,
        "meta_ephemeris_type": 0,
        "meta_classification_type": "U",
        "meta_norad_cat_id": 37535,
        "meta_element_set_no": 999,
        "meta_rev_at_epoch": 85425,
        "meta_bstar": 0.0004624,
        "meta_mean_motion_dot": 2.129e-05,
        "meta_mean_motion_ddot": 0,
        "tle_line1": "1 37535U 93036BNQ 25353.64633374  .00002129  00000+0  46240-3 0  9990",
        "tle_line2": "2 37535  74.0240  60.3433 0027409 198.5570 313.5255 14.58499467854253"
      },
      "geometry": {
        "type": "Point",
        "coordinates": [
          -113.902884101076,
          -24.03558868254643
        ]
      }
    },
    {
      "type": "Feature",
      "properties": {
        "norad_id": 37537,
        "name": "COSMOS 2251 DEB",
        "group": "cosmos-2251-debris",
        "lat": 7.621597830245042,
        "lon": 68.66424008335794,
        "alt_km": 797.0643574738342,
        "timestamp": "2025-12-20T11:30:28.773823+00:00",
        "meta_object_name": "COSMOS 2251 DEB",
        "meta_object_id": "1993-036BNS",
        "meta_epoch": "2025-12-18T00:15:20.074464",
        "meta_mean_motion": 14.37498757,
        "meta_eccentricity": 0.00505516,
        "meta_inclination": 74.0117,
        "meta_ra_of_asc_node": 255.4114,
        "meta_arg_of_pericenter": 34.2207,
        "meta_mean_anomaly": 326.2186,
        "meta_ephemeris_type": 0,
        "meta_classification_type": "U",
        "meta_norad_cat_id": 37537,
        "meta_element_set_no": 999,
        "meta_rev_at_epoch": 85109,
        "meta_bstar": 0.00017725401,
        "meta_mean_motion_dot": 5.12e-06,
        "meta_mean_motion_ddot": 0,
        "tle_line1": "1 37537U 93036BNS 25352.01064901  .00000512  00000+0  17725-3 0  9996",
        "tle_line2": "2 37537  74.0117 255.4114 0050551  34.2207 326.2186 14.37498757851099"
      },
      "geometry": {
        "type": "Point",
        "coordinates": [
          68.66424008335794,
          7.621597830245042
        ]
      }
    },
    {
      "type": "Feature",
      "properties": {
        "norad_id": 37546,
        "name": "COSMOS 2251 DEB",
        "group": "cosmos-2251-debris",
        "lat": 11.329054707491714,
        "lon": 86.02206796125576,
        "alt_km": 626.6911454552001,
        "timestamp": "2025-12-20T11:30:28.773832+00:00",
        "meta_object_name": "COSMOS 2251 DEB",
        "meta_object_id": "1993-036BPB",
        "meta_epoch": "2025-12-19T06:16:07.383648",
        "meta_mean_motion": 14.80755456,
        "meta_eccentricity": 0.0005308,
        "meta_inclination": 74.0228,
        "meta_ra_of_asc_node": 85.1349,
        "meta_arg_of_pericenter": 85.4439,
        "meta_mean_anomaly": 274.7344,
        "meta_ephemeris_type": 0,
        "meta_classification_type": "U",
        "meta_norad_cat_id": 37546,
        "meta_element_set_no": 999,
        "meta_rev_at_epoch": 65984,
        "meta_bstar": 0.001677,
        "meta_mean_motion_dot": 0.00012912,
        "meta_mean_motion_ddot": 0,
        "tle_line1": "1 37546U 93036BPB 25353.26119657  .00012912  00000+0  16770-2 0  9998",
        "tle_line2": "2 37546  74.0228  85.1349 0005308  85.4439 274.7344 14.80755456659847"
      },
      "geometry": {
        "type": "Point",
        "coordinates": [
          86.02206796125576,
          11.329054707491714
        ]
      }
    },
    {
      "type": "Feature",
      "properties": {
        "norad_id": 37959,
        "name": "COSMOS 2251 DEB",
        "group": "cosmos-2251-debris",
        "lat": -56.25937226265246,
        "lon": 16.773290627645558,
        "alt_km": 723.9197399066206,
        "timestamp": "2025-12-20T11:30:28.773842+00:00",
        "meta_object_name": "COSMOS 2251 DEB",
        "meta_object_id": "1993-036BPJ",
        "meta_epoch": "2025-12-19T21:47:02.000256",
        "meta_mean_motion": 14.5818564,
        "meta_eccentricity": 0.0057391,
        "meta_inclination": 74.0108,
        "meta_ra_of_asc_node": 43.2841,
        "meta_arg_of_pericenter": 184.5284,
        "meta_mean_anomaly": 354.4409,
        "meta_ephemeris_type": 0,
        "meta_classification_type": "U",
        "meta_norad_cat_id": 37959,
        "meta_element_set_no": 999,
        "meta_rev_at_epoch": 80231,
        "meta_bstar": 0.00039942,
        "meta_mean_motion_dot": 1.854e-05,
        "meta_mean_motion_ddot": 0,
        "tle_line1": "1 37959U 93036BPJ 25353.90766204  .00001854  00000+0  39942-3 0  9993",
        "tle_line2": "2 37959  74.0108  43.2841 0057391 184.5284 354.4409 14.58185640802319"
      },
      "geometry": {
        "type": "Point",
        "coordinates": [
          16.773290627645558,
          -56.25937226265246
        ]
      }
    },
    {
      "type": "Feature",
      "properties": {
        "norad_id": 37960,
        "name": "COSMOS 2251 DEB",
        "group": "cosmos-2251-debris",
        "lat": -18.128959002922418,
        "lon": -1.3007774931310585,
        "alt_km": 693.137180370165,
        "timestamp": "2025-12-20T11:30:28.773852+00:00",
        "meta_object_name": "COSMOS 2251 DEB",
        "meta_object_id": "1993-036BPK",
        "meta_epoch": "2025-12-16T19:35:27.740256",
        "meta_mean_motion": 14.07867991,
        "meta_eccentricity": 0.02485393,
        "meta_inclination": 74.059,
        "meta_ra_of_asc_node": 179.7478,
        "meta_arg_of_pericenter": 197.3915,
        "meta_mean_anomaly": 161.86,
        "meta_ephemeris_type": 0,
        "meta_classification_type": "U",
        "meta_norad_cat_id": 37960,
        "meta_element_set_no": 999,
        "meta_rev_at_epoch": 77463,
        "meta_bstar": 0.00064570376,
        "meta_mean_motion_dot": 1.428e-05,
        "meta_mean_motion_ddot": 0,
        "tle_line1": "1 37960U 93036BPK 25350.81629329  .00001428  00000+0  64570-3 0  9990",
        "tle_line2": "2 37960  74.0590 179.7478 0248539 197.3915 161.8600 14.07867991774632"
      },
      "geometry": {
        "type": "Point",
        "coordinates": [
          -1.3007774931310585,
          -18.128959002922418
        ]
      }
    },
    {
      "type": "Feature",
      "properties": {
        "norad_id": 37961,
        "name": "COSMOS 2251 DEB",
        "group": "cosmos-2251-debris",
        "lat": 0.10908842291590826,
        "lon": 122.42424987639411,
        "alt_km": 728.812142107784,
        "timestamp": "2025-12-20T11:30:28.773862+00:00",
        "meta_object_name": "COSMOS 2251 DEB",
        "meta_object_id": "1993-036BPL",
        "meta_epoch": "2025-12-13T03:18:27.462240",
        "meta_mean_motion": 14.57979799,
        "meta_eccentricity": 0.00406759,
        "meta_inclination": 74.0407,
        "meta_ra_of_asc_node": 136.3488,
        "meta_arg_of_pericenter": 216.8805,
        "meta_mean_anomaly": 142.9561,
        "meta_ephemeris_type": 0,
        "meta_classification_type": "U",
        "meta_norad_cat_id": 37961,
        "meta_element_set_no": 999,
        "meta_rev_at_epoch": 80071,
        "meta_bstar": 0.001729191,
        "meta_mean_motion_dot": 8.011e-05,
        "meta_mean_motion_ddot": 0,
        "tle_line1": "1 37961U 93036BPL 25347.13781785  .00008011  00000+0  17292-2 0  9990",
        "tle_line2": "2 37961  74.0407 136.3488 0040675 216.8805 142.9561 14.57979799800716"
      },
      "geometry": {
        "type": "Point",
        "coordinates": [
          122.42424987639411,
          0.10908842291590826
        ]
      }
    }
  ]
}